{
    "links": {
        "self": "http://www.neowsapp.com/rest/v1/neo/54054626?api_key=iIulBulltgU6a56xZRHN4H3l9WmuAYTsLGpBGhQ2"
    },
    "id": "54054626",
    "neo_reference_id": "54054626",
    "name": "(2020 SO4)",
    "designation": "2020 SO4",
    "nasa_jpl_url": "http://ssd.jpl.nasa.gov/sbdb.cgi?sstr=54054626",
    "absolute_magnitude_h": 27.168,
    "estimated_diameter": {
        "kilometers": {
            "estimated_diameter_min": 0.0097938845,
            "estimated_diameter_max": 0.0218997914
        },
        "meters": {
            "estimated_diameter_min": 9.7938844676,
            "estimated_diameter_max": 21.8997914332
        },
        "miles": {
            "estimated_diameter_min": 0.0060856358,
            "estimated_diameter_max": 0.0136078953
        },
        "feet": {
            "estimated_diameter_min": 32.1321679165,
            "estimated_diameter_max": 71.8497117258
        }
    },
    "is_potentially_hazardous_asteroid": false,
    "close_approach_data": [
        {
            "close_approach_date": "2020-09-27",
            "close_approach_date_full": "2020-Sep-27 22:55",
            "epoch_date_close_approach": 1601247300000,
            "relative_velocity": {
                "kilometers_per_second": "7.6497609027",
                "kilometers_per_hour": "27539.1392498707",
                "miles_per_hour": "17111.7501633433"
            },
            "miss_distance": {
                "astronomical": "0.0172951356",
                "lunar": "6.7278077484",
                "kilometers": "2587315.447121172",
                "miles": "1607683.2695772936"
            },
            "orbiting_body": "Earth"
        }
    ],
    "orbital_data": {
        "orbit_id": "4",
        "orbit_determination_date": "2020-09-27 06:55:31",
        "first_observation_date": "2020-09-23",
        "last_observation_date": "2020-09-27",
        "data_arc_in_days": 4,
        "observations_used": 32,
        "orbit_uncertainty": "8",
        "minimum_orbit_intersection": ".0114483",
        "jupiter_tisserand_invariant": "4.038",
        "epoch_osculation": "2459116.5",
        "eccentricity": ".4402231418348632",
        "semi_major_axis": "1.73217832008956",
        "inclination": "3.162904800422226",
        "ascending_node_longitude": "177.607960281202",
        "orbital_period": "832.6976229092635",
        "perihelion_distance": ".9696333378014985",
        "perihelion_argument": "218.9171442992503",
        "aphelion_distance": "2.494723302377622",
        "perihelion_time": "2459146.182534519766",
        "mean_anomaly": "347.1673556725403",
        "mean_motion": ".4323298038755517",
        "equinox": "J2000",
        "orbit_class": {
            "orbit_class_type": "APO",
            "orbit_class_description": "Near-Earth asteroid orbits which cross the Earth’s orbit similar to that of 1862 Apollo",
            "orbit_class_range": "a (semi-major axis) > 1.0 AU; q (perihelion) < 1.017 AU"
        }
    },
    "is_sentry_object": false
}